[{"OBJECT_NAME":"FLOCK 4G-26","OBJECT_ID":"2025-009AA","EPOCH":"2026-03-09T19:19:02.910720","MEAN_MOTION":15.27281631,"ECCENTRICITY":0.0001988,"INCLINATION":97.4054,"RA_OF_ASC_NODE":151.3913,"ARG_OF_PERICENTER":299.1273,"MEAN_ANOMALY":60.9767,"EPHEMERIS_TYPE":0,"CLASSIFICATION_TYPE":"U","NORAD_CAT_ID":62633,"ELEMENT_SET_NO":999,"REV_AT_EPOCH":6373,"BSTAR":0.00042468806,"MEAN_MOTION_DOT":0.00011283,"MEAN_MOTION_DDOT":0},{"OBJECT_NAME":"TRANSPORTER-13 OBJECT AH","OBJECT_ID":"2025-052AH","EPOCH":"2026-03-09T15:34:17.115744","MEAN_MOTION":15.25468797,"ECCENTRICITY":0.000807,"INCLINATION":97.3962,"RA_OF_ASC_NODE":323.1443,"ARG_OF_PERICENTER":138.7508,"MEAN_ANOMALY":221.4341,"EPHEMERIS_TYPE":0,"CLASSIFICATION_TYPE":"U","NORAD_CAT_ID":63241,"ELEMENT_SET_NO":999,"REV_AT_EPOCH":5475,"BSTAR":0.00055931,"MEAN_MOTION_DOT":0.00014108,"MEAN_MOTION_DDOT":0}]
